{"fetched_at":"2026-03-29T16:36:15Z","count":15609,"tles":[{"name":"STARLINK-35113","line1":"1 65697U 25212X   26087.85764750  .00028189  00000+0  95998-3 0  9990","line2":"2 65697  53.1587 256.2526 0000953  88.6205 271.4905 15.30209555 30183","category":"Starlink"}]}