{
  "norad_id": 65697,
  "name": "STARLINK-35113",
  "history": [
    {
      "epoch": "2026-03-28T20:35:00.744000Z",
      "apogee_km": 475.84007299285804,
      "perigee_km": 474.53300712729833,
      "latitude_deg": 4.3283936579122495e-06,
      "longitude_deg": 121.22743136518685,
      "height_km": 476.0691725681676,
      "semi_major_axis_km": 6853.323540060078,
      "eccentricity": 9.536e-05,
      "inclination_deg": 53.1587,
      "raan_deg": 256.2526,
      "arg_perigee_deg": 88.6205,
      "mean_anomaly_deg": 271.4905,
      "mean_motion_rev_day": 15.30209555
    }
  ]
}